IRIDIUM 150             
1 43257U 18030J   25199.58485385  .00000002  00000+0 -63512-5 0  9999
2 43257  86.3932  69.9342 0001797  86.9342 273.2059 14.34217396382363
IRIDIUM 143             
1 43258U 18030K   25199.35651991 -.00000012  00000+0 -11251-4 0  9997
2 43258  86.3936  70.1094 0001567  90.7388 269.3987 14.34217332382247
IRIDIUM 161             
1 43478U 18047C   25199.82632065  .00000259  00000+0  70892-4 0  9999
2 43478  86.4473 227.7144 0002603  88.7446 271.4053 14.43281050377057
IRIDIUM 152             
1 43479U 18047D   25199.81761814  .00000040  00000+0  73577-5 0  9996
2 43479  86.3948 227.5787 0002385  88.2968 271.8501 14.34217950374705
IRIDIUM 147             
1 43480U 18047E   25199.47511920  .00000007  00000+0 -46557-5 0  9993
2 43480  86.3954 227.7211 0002333  93.9970 266.1493 14.34217514374654
IRIDIUM 110             
1 43481U 18047F   25199.55122946  .00000181  00000+0  57488-4 0  9995
2 43481  86.3951 227.7723 0002777  87.9557 272.1957 14.34217843374653
IRIDIUM 162             
1 43482U 18047G   25199.82001998  .00000249  00000+0  68052-4 0  9993
2 43482  86.4472 227.6120 0002574  84.8539 275.2956 14.43279673377042
IRIDIUM 160             
1 43569U 18061A   25199.70637122  .00000040  00000+0  71256-5 0  9996
2 43569  86.3986 196.1180 0002533  87.1276 273.0209 14.34217719365577
